H1 CPF  1  MCC 2022 10 25 14  7981 larets
H2  0304206 5557    27944 2022 10 24 23 45 00 2022 10 29 23 57 00   180 1 1  0 0 0
H9
10 0 59877 22140.000000 0     -3540074.882      4881202.186      3668655.393
10 0 59877 22320.000000 0     -3625284.124      5530147.375      2468814.089
10 0 59877 22500.000000 0     -3563914.835      5977757.145      1178298.272
10 0 59877 22680.000000 0     -3363685.657      6203847.196      -155518.382
10 0 59877 22860.000000 0     -3037858.919      6196676.439     -1483618.925
10 0 59877 23040.000000 0     -2604523.741      5953531.647     -2757213.914
10 0 59877 23220.000000 0     -2085667.464      5480917.014     -3929596.936
10 0 59877 23400.000000 0     -1506098.921      4794354.295     -4957891.678
10 0 59877 23580.000000 0      -892284.731      3917810.701     -5804622.881
10 0 59877 23760.000000 0      -271156.603      2882796.455     -6439056.584
10 0 59877 23940.000000 0       331057.651      1727171.865     -6838268.869
10 0 59877 24120.000000 0       889924.126       493726.138     -6987913.946
10 0 59877 24300.000000 0      1383775.893      -771415.847     -6882690.400
10 0 59877 24480.000000 0      1794537.219     -2020508.141     -6526498.469
10 0 59877 24660.000000 0      2108374.377     -3205961.273     -5932294.660
10 0 59877 24840.000000 0      2316158.996     -4282138.666     -5121654.150
10 0 59877 25020.000000 0      2413727.948     -5207120.301     -4124031.480
10 0 59877 25200.000000 0      2401928.019     -5944356.132     -2975734.718
10 0 59877 25380.000000 0      2286443.821     -6464153.110     -1718640.230
10 0 59877 25560.000000 0      2077412.439     -6744923.951      -398676.198
10 0 59877 25740.000000 0      1788841.019     -6774125.069       935874.070
10 0 59877 25920.000000 0      1437853.434     -6548828.646      2236173.376
10 0 59877 26100.000000 0      1043805.514     -6075899.386      3454660.959
10 0 59877 26280.000000 0       627313.388     -5371760.844      4546822.418
10 0 59877 26460.000000 0       209248.516     -4461777.961      5472822.891
10 0 59877 26640.000000 0      -190250.214     -3379288.944      6198945.710
10 0 59877 26820.000000 0      -552697.655     -2164333.021      6698784.964
10 0 59877 27000.000000 0      -862079.333      -862142.489      6954157.116
10 0 59877 27180.000000 0     -1105533.406       478541.048      6955727.509
10 0 59877 27360.000000 0     -1273875.059      1807279.904      6703338.048
10 0 59877 27540.000000 0     -1361943.339      3073821.821      6206026.479
10 0 59877 27720.000000 0     -1368761.159      4229992.601      5481738.045
10 0 59877 27900.000000 0     -1297502.595      5231541.728      4556730.233
10 0 59877 28080.000000 0     -1155267.434      6039878.345      3464674.400
10 0 59877 28260.000000 0      -952670.708      6623622.123      2245468.249
10 0 59877 28440.000000 0      -703263.890      6959901.851       943788.384
10 0 59877 28620.000000 0      -422804.378      7035321.074      -392572.368
10 0 59877 28800.000000 0      -128414.966      6846537.882     -1714509.277
10 0 59877 28980.000000 0       162320.962      6400415.241     -2973477.494
10 0 59877 29160.000000 0       432275.321      5713733.155     -4123328.530
10 0 59877 29340.000000 0       665657.972      4812494.846     -5122032.899
10 0 59877 29520.000000 0       848822.480      3730863.556     -5933218.584
10 0 59877 29700.000000 0       970953.281      2509791.169     -6527466.725
10 0 59877 29880.000000 0      1024602.940      1195409.602     -6883325.547
10 0 59877 30060.000000 0      1006060.692      -162737.916     -6988024.592
10 0 59877 30240.000000 0       915540.436     -1513563.837     -6837885.894
10 0 59877 30420.000000 0       757182.802     -2806337.655     -6438425.643
10 0 59877 30600.000000 0       538874.954     -3992564.110     -5804160.962
10 0 59877 30780.000000 0       271890.824     -5027796.083     -4958117.812
10 0 59877 30960.000000 0       -29633.742     -5873313.630     -3931040.955
10 0 59877 31140.000000 0      -349374.468     -6497611.914     -2760322.745
10 0 59877 31320.000000 0      -669613.549     -6877631.655     -1488671.665
10 0 59877 31500.000000 0      -972120.469     -6999672.661      -162558.942
10 0 59877 31680.000000 0     -1239075.523     -6859933.372      1169501.528
10 0 59877 31860.000000 0     -1453989.742     -6464645.620      2458763.856
10 0 59877 32040.000000 0     -1602572.431     -5829794.537      3658075.087
10 0 59877 32220.000000 0     -1673497.879     -4980435.390      4723629.383
10 0 59877 32400.000000 0     -1659032.760     -3949651.842      5616571.118
10 0 59877 32580.000000 0     -1555499.146     -2777216.582      6304393.976
10 0 59877 32760.000000 0     -1363548.686     -1508014.160      6762085.953
10 0 59877 32940.000000 0     -1088240.018      -190307.445      6972993.015
10 0 59877 33120.000000 0      -738923.066      1126093.812      6929391.277
10 0 59877 33300.000000 0      -328927.871      2391700.176      6632758.966
10 0 59877 33480.000000 0       124936.472      3559190.316      6093742.077
10 0 59877 33660.000000 0       603054.020      4585180.738      5331811.009
10 0 59877 33840.000000 0      1083824.727      5431862.879      4374610.489
10 0 59877 34020.000000 0      1544610.175      6068446.809      3257007.617
10 0 59877 34200.000000 0      1962766.358      6472353.409      2019861.222
10 0 59877 34380.000000 0      2316718.969      6630094.729       708526.337
10 0 59877 34560.000000 0      2587018.883      6537775.237      -628842.831
10 0 59877 34740.000000 0      2757324.454      6201190.019     -1943112.235
10 0 59877 34920.000000 0      2815259.594      5635516.430     -3186031.482
10 0 59877 35100.000000 0      2753100.987      4864611.000     -4312059.411
10 0 59877 35280.000000 0      2568254.866      3919947.870     -5280063.472
10 0 59877 35460.000000 0      2263502.224      2839268.167     -6054816.886
10 0 59877 35640.000000 0      1847009.089      1665015.124     -6608245.793
10 0 59877 35820.000000 0      1332105.324       442629.814     -6920389.898
10 0 59877 36000.000000 0       736847.016      -781216.470     -6980063.898
10 0 59877 36180.000000 0        83374.415     -1960393.627     -6785213.676
10 0 59877 36360.000000 0      -602907.130     -3051026.478     -6342966.262
10 0 59877 36540.000000 0     -1294301.163     -4013108.664     -5669384.423
10 0 59877 36720.000000 0     -1961919.052     -4811968.523     -4788919.540
10 0 59877 36900.000000 0     -2576869.446     -5419540.372     -3733574.472
10 0 59877 37080.000000 0     -3111495.691     -5815390.591     -2541783.065
10 0 59877 37260.000000 0     -3540605.751     -5987450.070     -1257036.876
10 0 59877 37440.000000 0     -3842638.653     -5932417.322        73701.039
10 0 59877 37620.000000 0     -4000703.816     -5655801.359      1401739.031
10 0 59877 37800.000000 0     -4003436.556     -5171596.646      2678479.022
10 0 59877 37980.000000 0     -3845623.839     -4501604.647      3857234.292
10 0 59877 38160.000000 0     -3528569.678     -3674443.124      4894960.173
10 0 59877 38340.000000 0     -3060184.505     -2724295.900      5753826.843
10 0 59877 38520.000000 0     -2454798.845     -1689472.340      6402573.004
10 0 59877 38700.000000 0     -1732714.294      -610848.119      6817606.830
10 0 59877 38880.000000 0      -919508.687       469755.393      6983823.074
10 0 59877 39060.000000 0       -45129.082      1511181.485      6895116.155
10 0 59877 39240.000000 0       857199.444      2474491.173      6554598.739
10 0 59877 39420.000000 0      1752222.786      3324412.883      5974511.508
10 0 59877 39600.000000 0      2604022.407      4030640.832      5175826.251
10 0 59877 39780.000000 0      3377455.573      4568945.291      4187543.447
10 0 59877 39960.000000 0      4039616.612      4922045.872      3045687.921
10 0 59877 40140.000000 0      4561262.155      5080215.193      1792027.998
10 0 59877 40320.000000 0      4918126.187      5041570.265       472540.350
10 0 59877 40500.000000 0      5092055.177      4812034.453      -864310.035
10 0 59877 40680.000000 0      5071897.082      4404959.009     -2169409.416
10 0 59877 40860.000000 0      4854096.010      3840426.970     -3394858.191
10 0 59877 41040.000000 0      4442962.807      3144280.876     -4495777.609
10 0 59877 41220.000000 0      3850606.771      2346927.735     -5431976.978
10 0 59877 41400.000000 0      3096542.873      1481985.821     -6169411.335
10 0 59877 41580.000000 0      2206998.405       584846.531     -6681380.014
10 0 59877 41760.000000 0      1213958.526      -308780.010     -6949433.711
10 0 59877 41940.000000 0       153996.941     -1164277.796     -6963983.492
10 0 59877 42120.000000 0      -933073.420     -1949449.419     -6724602.588
10 0 59877 42300.000000 0     -2005680.330     -2635707.858     -6240025.135
10 0 59877 42480.000000 0     -3022062.739     -3199107.314     -5527844.497
10 0 59877 42660.000000 0     -3941882.984     -3621180.905     -4613916.751
10 0 59877 42840.000000 0     -4727834.009     -3889560.838     -3531472.043
10 0 59877 43020.000000 0     -5347173.453     -3998350.566     -2319946.926
10 0 59877 43200.000000 0     -5773117.932     -3948231.366     -1023568.553
10 0 59877 43380.000000 0     -5986026.727     -3746292.454       310264.134
10 0 59877 43560.000000 0     -5974312.930     -3405590.351      1632739.975
10 0 59877 43740.000000 0     -5735027.480     -2944455.181      2895465.060
10 0 59877 43920.000000 0     -5274080.188     -2385577.807      4052271.789
10 0 59877 44100.000000 0     -4606093.814     -1754931.116      5060928.718
10 0 59877 44280.000000 0     -3753901.070     -1080580.387      5884676.459
10 0 59877 44460.000000 0     -2747723.872      -391449.030      6493538.898
10 0 59877 44640.000000 0     -1624066.633       283910.854      6865376.785
10 0 59877 44820.000000 0      -424371.735       918486.219      6986648.018
10 0 59877 45000.000000 0       806504.277      1487867.651      6852871.754
99
